SWARM A                 
1 39452U 13067B   26170.80051639  .00008614  00000+0  14776-3 0  9994
2 39452  87.3318  55.2706 0003034  96.3589 263.8017 15.50996481706659
SWARM C                 
1 39453U 13067C   26170.80040590  .00008527  00000+0  14626-3 0  9996
2 39453  87.3317  53.8518 0003036  96.2944 263.8663 15.50994739706617
BRITE-CA1 (TORONTO)     
1 40020U 14033L   26170.61967506  .00000553  00000+0  91013-4 0  9993
2 40020  97.9743 299.5027 0077212 269.0848  90.1513 14.72679560642577
OCO 2                   
1 40059U 14035A   26170.83359338  .00000301  00000+0  76861-4 0  9994
2 40059  98.2017 112.0863 0001506  84.5890 275.5481 14.57113072636439
BRITE-PL2 (HEWELIUSZ)   
1 40119U 14049B   26170.58252109  .00001660  00000+0  15858-3 0  9993
2 40119  97.9101 282.6009 0015364 101.3495 258.9452 14.94600826641807
MMS 1                   
1 40482U 15011A   26170.91668980 -.00000593  00000+0  00000+0 0  9995
2 40482  72.1414 348.7643 8320593 167.4867 216.9379  0.28340985  1381
MMS 2                   
1 40483U 15011B   26170.91668980 -.00000593  00000+0  00000+0 0  9996
2 40483  72.1415 348.7665 8321377 167.4923 216.9267  0.28341000  1386
MMS 3                   
1 40484U 15011C   26170.91668980 -.00000593  00000+0  00000+0 0  9997
2 40484  72.1447 348.7710 8320558 167.4869 216.9218  0.28340969  1381
MMS 4                   
1 40485U 15011D   26170.91668980 -.00000593  00000+0  00000+0 0  9998
2 40485  72.1407 348.7668 8320171 167.4947 216.9104  0.28340963  1386
ASTROSAT                
1 40930U 15052A   26170.24424001  .00001352  00000+0  82956-4 0  9996
2 40930   5.9955 140.5370 0007646  62.3423 297.7480 14.82510285580134
DAMPE                   
1 41173U 15078A   26170.84849192  .00001061  00000+0  38191-4 0  9991
2 41173  97.4556 176.3287 0013769  68.8035 291.4675 15.30791331584952
PISAT                   
1 41784U 16059B   26170.45994244  .00000646  00000+0  11764-3 0  9999
2 41784  97.8178 170.8151 0028576 195.3619 164.6722 14.68986663520070
HXMT (HUIYAN)           
1 42758U 17034A   26170.83125595  .00002249  00000+0  11746-3 0  9993
2 42758  43.0125 168.3175 0030937 164.2204 195.9615 15.18489449498061
FLYING LAPTOP           
1 42831U 17042G   26170.85181932  .00002975  00000+0  23569-3 0  9995
2 42831  97.4702 326.2820 0019679 113.0315 247.2988 15.01160999486850
ZHANGHENG 1-01 (CSES-1) 
1 43194U 18015C   26170.83661058  .00005415  00000+0  24777-3 0  9993
2 43194  97.6878 336.5463 0017096 256.4527 103.4804 15.20838717465043
SALSAT                  
1 46495U 20068K   26170.82728722  .00006419  00000+0  22493-3 0  9990
2 46495  97.8854 174.0526 0007893 297.0230  63.0203 15.29831081315760
IXPE                    
1 49954U 21121A   26170.83335647  .00010240  00000+0  55182-3 0  9993
2 49954   0.2308 297.5926 0007281 121.1667 220.2880 15.10269621  5367
SMILE                   
1 69123U 26109A   26158.38327019 -.00000041  00000+0 -36778-3 0  9994
2 69123  69.9787 209.3069 3310191 288.5544  45.7342  7.54049028  2480
