OBJECT_NAME,OBJECT_ID,EPOCH,MEAN_MOTION,ECCENTRICITY,INCLINATION,RA_OF_ASC_NODE,ARG_OF_PERICENTER,MEAN_ANOMALY,EPHEMERIS_TYPE,CLASSIFICATION_TYPE,NORAD_CAT_ID,ELEMENT_SET_NO,REV_AT_EPOCH,BSTAR,MEAN_MOTION_DOT,MEAN_MOTION_DDOT
SWARM A,2013-067B,2026-06-19T19:12:44.616096,15.50996481,.0003034,87.3318,55.2706,96.3589,263.8017,0,U,39452,999,70665,.14776E-3,.8614E-4,0
SWARM C,2013-067C,2026-06-19T19:12:35.069760,15.50994739,.0003036,87.3317,53.8518,96.2944,263.8663,0,U,39453,999,70661,.14626E-3,.8527E-4,0
BRITE-CA1 (TORONTO),2014-033L,2026-06-19T14:52:19.925184,14.72679560,.00772127,97.9743,299.5027,269.0848,90.1513,0,U,40020,999,64257,.91013456E-4,.553E-5,0
OCO 2,2014-035A,2026-06-19T20:00:22.468032,14.57113072,.0001506,98.2017,112.0863,84.5890,275.5481,0,U,40059,999,63643,.76861E-4,.301E-5,0
BRITE-PL2 (HEWELIUSZ),2014-049B,2026-06-19T13:58:49.822176,14.94600826,.00153645,97.9101,282.6009,101.3495,258.9452,0,U,40119,999,64180,.15857707E-3,.166E-4,0
MMS 1,2015-011A,2026-06-19T22:00:01.998720,0.28340985,.8320593,72.1414,348.7643,167.4867,216.9379,0,U,40482,999,138,0,-.593E-5,0
MMS 2,2015-011B,2026-06-19T22:00:01.998720,0.28341000,.8321377,72.1415,348.7665,167.4923,216.9267,0,U,40483,999,138,0,-.593E-5,0
MMS 3,2015-011C,2026-06-19T22:00:01.998720,0.28340969,.8320558,72.1447,348.7710,167.4869,216.9218,0,U,40484,999,138,0,-.593E-5,0
MMS 4,2015-011D,2026-06-19T22:00:01.998720,0.28340963,.8320171,72.1407,348.7668,167.4947,216.9104,0,U,40485,999,138,0,-.593E-5,0
ASTROSAT,2015-052A,2026-06-19T05:51:42.336864,14.82510285,.00076466,5.9955,140.5370,62.3423,297.7480,0,U,40930,999,58013,.82955803E-4,.1352E-4,0
DAMPE,2015-078A,2026-06-19T20:21:49.701888,15.30791331,.0013769,97.4556,176.3287,68.8035,291.4675,0,U,41173,999,58495,.38191E-4,.1061E-4,0
PISAT,2016-059B,2026-06-19T11:02:19.026816,14.68986663,.00285769,97.8178,170.8151,195.3619,164.6722,0,U,41784,999,52007,.11764091E-3,.646E-5,0
HXMT (HUIYAN),2017-034A,2026-06-19T19:57:00.514080,15.18489449,.0030937,43.0125,168.3175,164.2204,195.9615,0,U,42758,999,49806,.11746E-3,.2249E-4,0
FLYING LAPTOP,2017-042G,2026-06-19T20:26:37.189248,15.01160999,.0019679,97.4702,326.2820,113.0315,247.2988,0,U,42831,999,48685,.23569E-3,.2975E-4,0
ZHANGHENG 1-01 (CSES-1),2018-015C,2026-06-19T20:04:43.154112,15.20838717,.0017096,97.6878,336.5463,256.4527,103.4804,0,U,43194,999,46504,.24777E-3,.5415E-4,0
SALSAT,2020-068K,2026-06-19T19:51:17.615808,15.29831081,.0007893,97.8854,174.0526,297.0230,63.0203,0,U,46495,999,31576,.22493E-3,.6419E-4,0
IXPE,2021-121A,2026-06-19T20:00:01.999008,15.10269621,.0007281,0.2308,297.5926,121.1667,220.2880,0,U,49954,999,536,.55182E-3,.1024E-3,0
SMILE,2026-109A,2026-06-07T09:11:54.544416,7.54049028,.3310191,69.9787,209.3069,288.5544,45.7342,0,U,69123,999,248,-.36778157E-3,-.41E-6,0
